{"type": "FeatureCollection", "features": [ {"type": "Feature", "properties": {"norad_id": 58662, "name": "TIANMU-1 21", "group": "weather", "lat": 54.82902716778228, "lon": 83.54887528815142, "alt_km": 469.21996399900763, "timestamp": "2025-12-06T20:37:55.699842+00:00", "meta": {"OBJECT_NAME": "TIANMU-1 21", "OBJECT_ID": "2023-208C", "EPOCH": "2025-12-06T14:07:02.894880", "MEAN_MOTION": 15.31354317, "ECCENTRICITY": 0.00059128, "INCLINATION": 97.4383, "RA_OF_ASC_NODE": 93.9614, "ARG_OF_PERICENTER": 286.0048, "MEAN_ANOMALY": 74.0542, "EPHEMERIS_TYPE": 0, "CLASSIFICATION_TYPE": "U", "NORAD_CAT_ID": 58662, "ELEMENT_SET_NO": 999, "REV_AT_EPOCH": 10805, "BSTAR": 0.00058660342, "MEAN_MOTION_DOT": 0.00017716, "MEAN_MOTION_DDOT": 0}, "tle": {"line1": "1 58662U 23208C   25340.58822795  .00017716  00000+0  58660-3 0  9991", "line2": "2 58662  97.4383  93.9614 0005912 286.0048  74.0542 15.31354317108059"}}, "geometry": {"type": "Point", "coordinates": [83.54887528815142, 54.82902716778228]}}, {"type": "Feature", "properties": {"norad_id": 58663, "name": "TIANMU-1 22", "group": "weather", "lat": 59.92096137696406, "lon": 78.93343512322699, "alt_km": 478.1632940572754, "timestamp": "2025-12-06T20:37:55.699858+00:00", "meta": {"OBJECT_NAME": "TIANMU-1 22", "OBJECT_ID": "2023-208D", "EPOCH": "2025-12-06T14:04:40.960416", "MEAN_MOTION": 15.27447718, "ECCENTRICITY": 0.00029106, "INCLINATION": 97.4391, "RA_OF_ASC_NODE": 91.699, "ARG_OF_PERICENTER": 316.862, "MEAN_ANOMALY": 43.239, "EPHEMERIS_TYPE": 0, "CLASSIFICATION_TYPE": "U", "NORAD_CAT_ID": 58663, "ELEMENT_SET_NO": 999, "REV_AT_EPOCH": 10789, "BSTAR": 0.00053875418, "MEAN_MOTION_DOT": 0.00014412, "MEAN_MOTION_DDOT": 0}, "tle": {"line1": "1 58663U 23208D   25340.58658519  .00014412  00000+0  53875-3 0  9996", "line2": "2 58663  97.4391  91.6990 0002910 316.8620  43.2390 15.27447718107897"}}, "geometry": {"type": "Point", "coordinates": [78.93343512322699, 59.92096137696406]}}, {"type": "Feature", "properties": {"norad_id": 58700, "name": "TIANMU-1 15", "group": "weather", "lat": -70.23472566369821, "lon": -39.043018896274376, "alt_km": 498.1743177138642, "timestamp": "2025-12-06T20:37:55.699875+00:00", "meta": {"OBJECT_NAME": "TIANMU-1 15", "OBJECT_ID": "2024-004A", "EPOCH": "2025-12-06T14:48:20.223936", "MEAN_MOTION": 15.24556995, "ECCENTRICITY": 0.00055379, "INCLINATION": 97.4624, "RA_OF_ASC_NODE": 162.1088, "ARG_OF_PERICENTER": 323.6318, "MEAN_ANOMALY": 36.4543, "EPHEMERIS_TYPE": 0, "CLASSIFICATION_TYPE": "U", "NORAD_CAT_ID": 58700, "ELEMENT_SET_NO": 999, "REV_AT_EPOCH": 10641, "BSTAR": 0.00043594139, "MEAN_MOTION_DOT": 0.00010673, "MEAN_MOTION_DDOT": 0}, "tle": {"line1": "1 58700U 24004A   25340.61690074  .00010673  00000+0  43594-3 0  9991", "line2": "2 58700  97.4624 162.1088 0005537 323.6318  36.4543 15.24556995106414"}}, "geometry": {"type": "Point", "coordinates": [-39.043018896274376, -70.23472566369821]}}, {"type": "Feature", "properties": {"norad_id": 58701, "name": "TIANMU-1 16", "group": "weather", "lat": -21.192552012471335, "lon": 164.6567487162647, "alt_km": 495.0408458264701, "timestamp": "2025-12-06T20:37:55.699891+00:00", "meta": {"OBJECT_NAME": "TIANMU-1 16", "OBJECT_ID": "2024-004B", "EPOCH": "2025-12-06T14:25:25.301856", "MEAN_MOTION": 15.24308595, "ECCENTRICITY": 0.0004859, "INCLINATION": 97.4563, "RA_OF_ASC_NODE": 161.4887, "ARG_OF_PERICENTER": 322.1576, "MEAN_ANOMALY": 37.9319, "EPHEMERIS_TYPE": 0, "CLASSIFICATION_TYPE": "U", "NORAD_CAT_ID": 58701, "ELEMENT_SET_NO": 999, "REV_AT_EPOCH": 10641, "BSTAR": 0.00046254925, "MEAN_MOTION_DOT": 0.00011245, "MEAN_MOTION_DDOT": 0}, "tle": {"line1": "1 58701U 24004B   25340.60098729  .00011245  00000+0  46255-3 0  9993", "line2": "2 58701  97.4563 161.4887 0004859 322.1576  37.9319 15.24308595106410"}}, "geometry": {"type": "Point", "coordinates": [164.6567487162647, -21.192552012471335]}}, {"type": "Feature", "properties": {"norad_id": 58702, "name": "TIANMU-1 17", "group": "weather", "lat": 61.354556735051425, "lon": 148.2739247227445, "alt_km": 487.11211273336085, "timestamp": "2025-12-06T20:37:55.699907+00:00", "meta": {"OBJECT_NAME": "TIANMU-1 17", "OBJECT_ID": "2024-004C", "EPOCH": "2025-12-06T14:03:29.826432", "MEAN_MOTION": 15.24353981, "ECCENTRICITY": 0.00040788, "INCLINATION": 97.4598, "RA_OF_ASC_NODE": 161.8804, "ARG_OF_PERICENTER": 326.2978, "MEAN_ANOMALY": 33.8, "EPHEMERIS_TYPE": 0, "CLASSIFICATION_TYPE": "U", "NORAD_CAT_ID": 58702, "ELEMENT_SET_NO": 999, "REV_AT_EPOCH": 10640, "BSTAR": 0.00047061568, "MEAN_MOTION_DOT": 0.00011457, "MEAN_MOTION_DDOT": 0}, "tle": {"line1": "1 58702U 24004C   25340.58576188  .00011457  00000+0  47062-3 0  9993", "line2": "2 58702  97.4598 161.8804 0004078 326.2978  33.8000 15.24353981106406"}}, "geometry": {"type": "Point", "coordinates": [148.2739247227445, 61.354556735051425]}}, {"type": "Feature", "properties": {"norad_id": 58703, "name": "TIANMU-1 18", "group": "weather", "lat": 25.635357652184577, "lon": -14.046907174996973, "alt_km": 494.325538912336, "timestamp": "2025-12-06T20:37:55.699924+00:00", "meta": {"OBJECT_NAME": "TIANMU-1 18", "OBJECT_ID": "2024-004D", "EPOCH": "2025-12-06T13:39:24.167808", "MEAN_MOTION": 15.24344635, "ECCENTRICITY": 0.00034142, "INCLINATION": 97.4616, "RA_OF_ASC_NODE": 162.0578, "ARG_OF_PERICENTER": 328.3658, "MEAN_ANOMALY": 31.7373, "EPHEMERIS_TYPE": 0, "CLASSIFICATION_TYPE": "U", "NORAD_CAT_ID": 58703, "ELEMENT_SET_NO": 999, "REV_AT_EPOCH": 10640, "BSTAR": 0.0004406585, "MEAN_MOTION_DOT": 0.00010719, "MEAN_MOTION_DDOT": 0}, "tle": {"line1": "1 58703U 24004D   25340.56902972  .00010719  00000+0  44066-3 0  9997", "line2": "2 58703  97.4616 162.0578 0003414 328.3658  31.7373 15.24344635106406"}}, "geometry": {"type": "Point", "coordinates": [-14.046907174996973, 25.635357652184577]}}, {"type": "Feature", "properties": {"norad_id": 58990, "name": "INSAT-3DS", "group": "weather", "lat": 0.02419859213847896, "lon": 107.44746900962541, "alt_km": 35793.30970046379, "timestamp": "2025-12-06T20:37:55.699942+00:00", "meta": {"OBJECT_NAME": "INSAT-3DS", "OBJECT_ID": "2024-033A", "EPOCH": "2025-12-06T12:20:42.166752", "MEAN_MOTION": 1.00269639, "ECCENTRICITY": 0.00017279, "INCLINATION": 0.0085, "RA_OF_ASC_NODE": 26.1746, "ARG_OF_PERICENTER": 235.9597, "MEAN_ANOMALY": 80.688, "EPHEMERIS_TYPE": 0, "CLASSIFICATION_TYPE": "U", "NORAD_CAT_ID": 58990, "ELEMENT_SET_NO": 999, "REV_AT_EPOCH": 4513, "BSTAR": 0, "MEAN_MOTION_DOT": -1.49e-06, "MEAN_MOTION_DDOT": 0}, "tle": {"line1": "1 58990U 24033A   25340.51437693 -.00000149  00000+0  00000+0 0  9998", "line2": "2 58990   0.0085  26.1746 0001727 235.9597  80.6880  1.00269639 45138"}}, "geometry": {"type": "Point", "coordinates": [107.44746900962541, 0.02419859213847896]}}, {"type": "Feature", "properties": {"norad_id": 59051, "name": "METEOR-M2 4", "group": "weather", "lat": -35.31432542629866, "lon": -55.92950022386257, "alt_km": 820.1140420605125, "timestamp": "2025-12-06T20:37:55.699960+00:00", "meta": {"OBJECT_NAME": "METEOR-M2 4", "OBJECT_ID": "2024-039A", "EPOCH": "2025-12-06T14:02:48.710400", "MEAN_MOTION": 14.22399782, "ECCENTRICITY": 0.00073879, "INCLINATION": 98.6758, "RA_OF_ASC_NODE": 297.5909, "ARG_OF_PERICENTER": 15.9734, "MEAN_ANOMALY": 344.1676, "EPHEMERIS_TYPE": 0, "CLASSIFICATION_TYPE": "U", "NORAD_CAT_ID": 59051, "ELEMENT_SET_NO": 999, "REV_AT_EPOCH": 9188, "BSTAR": 5.9075195e-05, "MEAN_MOTION_DOT": 8.8e-07, "MEAN_MOTION_DDOT": 0}, "tle": {"line1": "1 59051U 24039A   25340.58528600  .00000088  00000+0  59075-4 0  9991", "line2": "2 59051  98.6758 297.5909 0007387  15.9734 344.1676 14.22399782 91884"}}, "geometry": {"type": "Point", "coordinates": [-55.92950022386257, -35.31432542629866]}}, {"type": "Feature", "properties": {"norad_id": 60133, "name": "GOES 19", "group": "weather", "lat": -0.004397094577061938, "lon": -49.8192870949156, "alt_km": 35780.459556334936, "timestamp": "2025-12-06T20:37:55.699981+00:00", "meta": {"OBJECT_NAME": "GOES 19", "OBJECT_ID": "2024-119A", "EPOCH": "2025-12-06T11:08:52.475136", "MEAN_MOTION": 1.00270241, "ECCENTRICITY": 0.00014631, "INCLINATION": 0.0067, "RA_OF_ASC_NODE": 67.752, "ARG_OF_PERICENTER": 233.8466, "MEAN_ANOMALY": 225.9392, "EPHEMERIS_TYPE": 0, "CLASSIFICATION_TYPE": "U", "NORAD_CAT_ID": 60133, "ELEMENT_SET_NO": 999, "REV_AT_EPOCH": 503, "BSTAR": 0, "MEAN_MOTION_DOT": -2.41e-06, "MEAN_MOTION_DDOT": 0}, "tle": {"line1": "1 60133U 24119A   25340.46449624 -.00000241  00000+0  00000+0 0  9999", "line2": "2 60133   0.0067  67.7520 0001463 233.8466 225.9392  1.00270241  5038"}}, "geometry": {"type": "Point", "coordinates": [-49.8192870949156, -0.004397094577061938]}}, {"type": "Feature", "properties": {"norad_id": 65815, "name": "FENGYUN 3H", "group": "weather", "lat": -73.6790237069767, "lon": 69.22413925171357, "alt_km": 833.415331696202, "timestamp": "2025-12-06T20:37:55.700001+00:00", "meta": {"OBJECT_NAME": "FENGYUN 3H", "OBJECT_ID": "2025-219A", "EPOCH": "2025-12-06T14:21:21.809376", "MEAN_MOTION": 14.19902081, "ECCENTRICITY": 6.164e-05, "INCLINATION": 98.6575, "RA_OF_ASC_NODE": 280.3222, "ARG_OF_PERICENTER": 77.978, "MEAN_ANOMALY": 282.1466, "EPHEMERIS_TYPE": 0, "CLASSIFICATION_TYPE": "U", "NORAD_CAT_ID": 65815, "ELEMENT_SET_NO": 999, "REV_AT_EPOCH": 1005, "BSTAR": 0.00012577714, "MEAN_MOTION_DOT": 2.24e-06, "MEAN_MOTION_DDOT": 0}, "tle": {"line1": "1 65815U 25219A   25340.59816909  .00000224  00000+0  12578-3 0  9998", "line2": "2 65815  98.6575 280.3222 0000616  77.9780 282.1466 14.19902081 10057"}}, "geometry": {"type": "Point", "coordinates": [69.22413925171357, -73.6790237069767]}}]}